{
  "type": "FeatureCollection",
  "features": [
    {
      "type": "Feature",
      "properties": {
        "norad_id": 30443,
        "name": "FENGYUN 1C DEB",
        "group": "fengyun-1c-debris",
        "lat": 25.629596957437506,
        "lon": -79.67459530162557,
        "alt_km": 750.0451478307605,
        "timestamp": "2025-12-03T17:47:50.994013+00:00",
        "meta_object_name": "FENGYUN 1C DEB",
        "meta_object_id": "1999-025AFE",
        "meta_epoch": "2025-12-02T19:56:48.787008",
        "meta_mean_motion": 14.3655413,
        "meta_eccentricity": 0.00286306,
        "meta_inclination": 98.8474,
        "meta_ra_of_asc_node": 283.6759,
        "meta_arg_of_pericenter": 6.2925,
        "meta_mean_anomaly": 353.8615,
        "meta_ephemeris_type": 0,
        "meta_classification_type": "U",
        "meta_norad_cat_id": 30443,
        "meta_element_set_no": 999,
        "meta_rev_at_epoch": 97291,
        "meta_bstar": 0.003353624,
        "meta_mean_motion_dot": 9.866e-05,
        "meta_mean_motion_ddot": 0,
        "tle_line1": "1 30443U 99025AFE 25336.83112022  .00009866  00000+0  33536-2 0  9997",
        "tle_line2": "2 30443  98.8474 283.6759 0028630   6.2925 353.8615 14.36554130972910"
      },
      "geometry": {
        "type": "Point",
        "coordinates": [
          -79.67459530162557,
          25.629596957437506
        ]
      }
    },
    {
      "type": "Feature",
      "properties": {
        "norad_id": 30445,
        "name": "FENGYUN 1C DEB",
        "group": "fengyun-1c-debris",
        "lat": -21.544306817987643,
        "lon": -67.7986966835746,
        "alt_km": 704.872799461491,
        "timestamp": "2025-12-03T17:47:50.994023+00:00",
        "meta_object_name": "FENGYUN 1C DEB",
        "meta_object_id": "1999-025AFG",
        "meta_epoch": "2025-12-03T07:57:03.085344",
        "meta_mean_motion": 14.48651015,
        "meta_eccentricity": 0.0106498,
        "meta_inclination": 98.8334,
        "meta_ra_of_asc_node": 288.2524,
        "meta_arg_of_pericenter": 46.3746,
        "meta_mean_anomaly": 314.6219,
        "meta_ephemeris_type": 0,
        "meta_classification_type": "U",
        "meta_norad_cat_id": 30445,
        "meta_element_set_no": 999,
        "meta_rev_at_epoch": 99048,
        "meta_bstar": 0.0010747,
        "meta_mean_motion_dot": 4.297e-05,
        "meta_mean_motion_ddot": 0,
        "tle_line1": "1 30445U 99025AFG 25337.33128571  .00004297  00000+0  10747-2 0  9993",
        "tle_line2": "2 30445  98.8334 288.2524 0106498  46.3746 314.6219 14.48651015990483"
      },
      "geometry": {
        "type": "Point",
        "coordinates": [
          -67.7986966835746,
          -21.544306817987643
        ]
      }
    },
    {
      "type": "Feature",
      "properties": {
        "norad_id": 30446,
        "name": "FENGYUN 1C DEB",
        "group": "fengyun-1c-debris",
        "lat": -69.06646259598864,
        "lon": -143.22553748958418,
        "alt_km": 765.601973837649,
        "timestamp": "2025-12-03T17:47:50.994033+00:00",
        "meta_object_name": "FENGYUN 1C DEB",
        "meta_object_id": "1999-025AFH",
        "meta_epoch": "2025-12-03T11:39:20.678400",
        "meta_mean_motion": 14.44531483,
        "meta_eccentricity": 0.0035574,
        "meta_inclination": 98.6156,
        "meta_ra_of_asc_node": 59.8647,
        "meta_arg_of_pericenter": 125.6626,
        "meta_mean_anomaly": 234.7885,
        "meta_ephemeris_type": 0,
        "meta_classification_type": "U",
        "meta_norad_cat_id": 30446,
        "meta_element_set_no": 999,
        "meta_rev_at_epoch": 98043,
        "meta_bstar": 0.0026587,
        "meta_mean_motion_dot": 9.224e-05,
        "meta_mean_motion_ddot": 0,
        "tle_line1": "1 30446U 99025AFH 25337.48565600  .00009224  00000+0  26587-2 0  9992",
        "tle_line2": "2 30446  98.6156  59.8647 0035574 125.6626 234.7885 14.44531483980433"
      },
      "geometry": {
        "type": "Point",
        "coordinates": [
          -143.22553748958418,
          -69.06646259598864
        ]
      }
    },
    {
      "type": "Feature",
      "properties": {
        "norad_id": 30447,
        "name": "FENGYUN 1C DEB",
        "group": "fengyun-1c-debris",
        "lat": -13.048152167891507,
        "lon": -159.28709333828738,
        "alt_km": 695.3013727494954,
        "timestamp": "2025-12-03T17:47:50.994044+00:00",
        "meta_object_name": "FENGYUN 1C DEB",
        "meta_object_id": "1999-025AFJ",
        "meta_epoch": "2025-12-03T02:03:52.517664",
        "meta_mean_motion": 14.56239092,
        "meta_eccentricity": 0.00596632,
        "meta_inclination": 98.9723,
        "meta_ra_of_asc_node": 197.9099,
        "meta_arg_of_pericenter": 59.1979,
        "meta_mean_anomaly": 93.6838,
        "meta_ephemeris_type": 0,
        "meta_classification_type": "U",
        "meta_norad_cat_id": 30447,
        "meta_element_set_no": 999,
        "meta_rev_at_epoch": 97955,
        "meta_bstar": 0.0032198926,
        "meta_mean_motion_dot": 0.00014562,
        "meta_mean_motion_ddot": 0,
        "tle_line1": "1 30447U 99025AFJ 25337.08602451  .00014562  00000+0  32199-2 0  9992",
        "tle_line2": "2 30447  98.9723 197.9099 0059663  59.1979  93.6838 14.56239092979554"
      },
      "geometry": {
        "type": "Point",
        "coordinates": [
          -159.28709333828738,
          -13.048152167891507
        ]
      }
    },
    {
      "type": "Feature",
      "properties": {
        "norad_id": 30448,
        "name": "FENGYUN 1C DEB",
        "group": "fengyun-1c-debris",
        "lat": 39.512057753983505,
        "lon": 61.76611679020109,
        "alt_km": 759.715232374795,
        "timestamp": "2025-12-03T17:47:50.994054+00:00",
        "meta_object_name": "FENGYUN 1C DEB",
        "meta_object_id": "1999-025AFK",
        "meta_epoch": "2025-12-03T12:39:50.567040",
        "meta_mean_motion": 14.34966037,
        "meta_eccentricity": 0.0017305,
        "meta_inclination": 98.8323,
        "meta_ra_of_asc_node": 68.9146,
        "meta_arg_of_pericenter": 41.4622,
        "meta_mean_anomaly": 334.3854,
        "meta_ephemeris_type": 0,
        "meta_classification_type": "U",
        "meta_norad_cat_id": 30448,
        "meta_element_set_no": 999,
        "meta_rev_at_epoch": 97206,
        "meta_bstar": 0.0027635,
        "meta_mean_motion_dot": 7.84e-05,
        "meta_mean_motion_ddot": 0,
        "tle_line1": "1 30448U 99025AFK 25337.52766860  .00007840  00000+0  27635-2 0  9997",
        "tle_line2": "2 30448  98.8323  68.9146 0017305  41.4622 334.3854 14.34966037972060"
      },
      "geometry": {
        "type": "Point",
        "coordinates": [
          61.76611679020109,
          39.512057753983505
        ]
      }
    },
    {
      "type": "Feature",
      "properties": {
        "norad_id": 30450,
        "name": "FENGYUN 1C DEB",
        "group": "fengyun-1c-debris",
        "lat": 23.595835973084704,
        "lon": -11.584293041762423,
        "alt_km": 798.8070641433023,
        "timestamp": "2025-12-03T17:47:50.994064+00:00",
        "meta_object_name": "FENGYUN 1C DEB",
        "meta_object_id": "1999-025AFM",
        "meta_epoch": "2025-12-02T00:52:07.891680",
        "meta_mean_motion": 14.61648153,
        "meta_eccentricity": 0.01888556,
        "meta_inclination": 98.0809,
        "meta_ra_of_asc_node": 350.3061,
        "meta_arg_of_pericenter": 242.0364,
        "meta_mean_anomaly": 172.5421,
        "meta_ephemeris_type": 0,
        "meta_classification_type": "U",
        "meta_norad_cat_id": 30450,
        "meta_element_set_no": 999,
        "meta_rev_at_epoch": 99386,
        "meta_bstar": 0.00075950337,
        "meta_mean_motion_dot": 4.819e-05,
        "meta_mean_motion_ddot": 0,
        "tle_line1": "1 30450U 99025AFM 25336.03620245  .00004819  00000+0  75950-3 0  9998",
        "tle_line2": "2 30450  98.0809 350.3061 0188855 242.0364 172.5421 14.61648153993868"
      },
      "geometry": {
        "type": "Point",
        "coordinates": [
          -11.584293041762423,
          23.595835973084704
        ]
      }
    },
    {
      "type": "Feature",
      "properties": {
        "norad_id": 30452,
        "name": "FENGYUN 1C DEB",
        "group": "fengyun-1c-debris",
        "lat": 56.99541681943842,
        "lon": -50.10440941445031,
        "alt_km": 707.4159951933552,
        "timestamp": "2025-12-03T17:47:50.994074+00:00",
        "meta_object_name": "FENGYUN 1C DEB",
        "meta_object_id": "1999-025AFP",
        "meta_epoch": "2025-12-03T07:44:05.074944",
        "meta_mean_motion": 14.63886801,
        "meta_eccentricity": 0.0049927,
        "meta_inclination": 99.3205,
        "meta_ra_of_asc_node": 114.7755,
        "meta_arg_of_pericenter": 279.7683,
        "meta_mean_anomaly": 153.8481,
        "meta_ephemeris_type": 0,
        "meta_classification_type": "U",
        "meta_norad_cat_id": 30452,
        "meta_element_set_no": 999,
        "meta_rev_at_epoch": 97969,
        "meta_bstar": 0.0054899,
        "meta_mean_motion_dot": 0.00029281,
        "meta_mean_motion_ddot": 0,
        "tle_line1": "1 30452U 99025AFP 25337.32228096  .00029281  00000+0  54899-2 0  9999",
        "tle_line2": "2 30452  99.3205 114.7755 0049927 279.7683 153.8481 14.63886801979692"
      },
      "geometry": {
        "type": "Point",
        "coordinates": [
          -50.10440941445031,
          56.99541681943842
        ]
      }
    }
  ]
}